ONEWEB-0108             
1 48076U 21025AL  23347.96367838  .00000369  00000+0  97435-3 0  9992
2 48076  87.8987 142.5704 0001286  90.4227 269.7050 13.13470772133380
ONEWEB-0169             
1 48077U 21025AM  23347.99539671 -.00000427  00000+0 -12052-2 0  9990
2 48077  87.8989 142.5682 0001339  92.7989 267.3293 13.13472867133275
ONEWEB-0176             
1 48210U 21031A   23348.40591214 -.00000571  00000+0 -15751-2 0  9993
2 48210  87.8964 111.9849 0001691  98.5964 261.5358 13.14508785129295
ONEWEB-0184             
1 48211U 21031B   23348.37898815 -.00002638  00000+0 -71533-2 0  9993
2 48211  87.8975 111.9792 0002031 137.5738 222.5549 13.14478696127976
ONEWEB-0179             
1 48212U 21031C   23348.34882903  .00000275  00000+0  70695-3 0  9994
2 48212  87.8981 111.9807 0001776 106.2658 253.8667 13.14504847128012
ONEWEB-0180             
1 48213U 21031D   23347.84931535 -.00000210  00000+0 -59960-3 0  9998
2 48213  87.8976 112.0828 0001843 104.2066 255.9269 13.14506042127837
ONEWEB-0218             
1 48214U 21031E   23347.87151077  .00000177  00000+0  44409-3 0  9999
2 48214  87.8976 112.0809 0002444 130.7929 229.3413 13.14504086127996
ONEWEB-0209             
1 48215U 21031F   23347.78428939 -.00000009  00000+0 -59807-4 0  9999
2 48215  87.8968 112.1317 0001685 101.5798 258.5521 13.14502042127982
